{"type": "FeatureCollection", "features": [ {"type": "Feature", "properties": {"norad_id": 52984, "name": "COSMOS 2557 (706K)", "group": "gnss", "lat": -48.179333995006786, "lon": 173.54658539986755, "alt_km": 19109.19557684316, "timestamp": "2025-12-08T21:31:04.911886+00:00", "meta": {"OBJECT_NAME": "COSMOS 2557 (706K)", "OBJECT_ID": "2022-075A", "EPOCH": "2025-12-07T04:21:00.419904", "MEAN_MOTION": 2.13101754, "ECCENTRICITY": 0.00137049, "INCLINATION": 64.4129, "RA_OF_ASC_NODE": 321.247, "ARG_OF_PERICENTER": 276.9, "MEAN_ANOMALY": 82.939, "EPHEMERIS_TYPE": 0, "CLASSIFICATION_TYPE": "U", "NORAD_CAT_ID": 52984, "ELEMENT_SET_NO": 999, "REV_AT_EPOCH": 2662, "BSTAR": 0, "MEAN_MOTION_DOT": -5.2e-07, "MEAN_MOTION_DDOT": 0}, "tle": {"line1": "1 52984U 22075A   25341.18125486 -.00000052  00000+0  00000+0 0  9990", "line2": "2 52984  64.4129 321.2470 0013704 276.9000  82.9390  2.13101754 26625"}}, "geometry": {"type": "Point", "coordinates": [173.54658539986755, -48.179333995006786]}}, {"type": "Feature", "properties": {"norad_id": 54031, "name": "COSMOS 2559 (707K)", "group": "gnss", "lat": 13.166196212964314, "lon": -32.293412792315394, "alt_km": 19159.12353280157, "timestamp": "2025-12-08T21:31:04.911897+00:00", "meta": {"OBJECT_NAME": "COSMOS 2559 (707K)", "OBJECT_ID": "2022-130A", "EPOCH": "2025-12-07T22:32:04.492896", "MEAN_MOTION": 2.1310126, "ECCENTRICITY": 0.00119368, "INCLINATION": 64.385, "RA_OF_ASC_NODE": 321.31, "ARG_OF_PERICENTER": 192.6499, "MEAN_ANOMALY": 167.316, "EPHEMERIS_TYPE": 0, "CLASSIFICATION_TYPE": "U", "NORAD_CAT_ID": 54031, "ELEMENT_SET_NO": 999, "REV_AT_EPOCH": 2461, "BSTAR": 0, "MEAN_MOTION_DOT": -5.2e-07, "MEAN_MOTION_DDOT": 0}, "tle": {"line1": "1 54031U 22130A   25341.93894089 -.00000052  00000+0  00000+0 0  9992", "line2": "2 54031  64.3850 321.3100 0011936 192.6499 167.3160  2.13101260 24614"}}, "geometry": {"type": "Point", "coordinates": [-32.293412792315394, 13.166196212964314]}}, {"type": "Feature", "properties": {"norad_id": 54377, "name": "COSMOS 2564 (761)", "group": "gnss", "lat": 40.51127152862671, "lon": -4.7655101890692455, "alt_km": 19118.24114092538, "timestamp": "2025-12-08T21:31:04.911910+00:00", "meta": {"OBJECT_NAME": "COSMOS 2564 (761)", "OBJECT_ID": "2022-161A", "EPOCH": "2025-12-06T20:16:19.958016", "MEAN_MOTION": 2.13101987, "ECCENTRICITY": 0.0008674, "INCLINATION": 64.7378, "RA_OF_ASC_NODE": 199.0949, "ARG_OF_PERICENTER": 205.6872, "MEAN_ANOMALY": 154.3558, "EPHEMERIS_TYPE": 0, "CLASSIFICATION_TYPE": "U", "NORAD_CAT_ID": 54377, "ELEMENT_SET_NO": 999, "REV_AT_EPOCH": 2353, "BSTAR": 0, "MEAN_MOTION_DOT": 6.7e-07, "MEAN_MOTION_DDOT": 0}, "tle": {"line1": "1 54377U 22161A   25340.84467544  .00000067  00000+0  00000+0 0  9995", "line2": "2 54377  64.7378 199.0949 0008674 205.6872 154.3558  2.13101987 23535"}}, "geometry": {"type": "Point", "coordinates": [-4.7655101890692455, 40.51127152862671]}}, {"type": "Feature", "properties": {"norad_id": 55268, "name": "GPS BIII-6  (PRN 28)", "group": "gnss", "lat": -51.115461180454936, "lon": 96.02157701274082, "alt_km": 20184.964280694174, "timestamp": "2025-12-08T21:31:04.911922+00:00", "meta": {"OBJECT_NAME": "GPS BIII-6  (PRN 28)", "OBJECT_ID": "2023-009A", "EPOCH": "2025-12-08T05:52:26.989248", "MEAN_MOTION": 2.00555991, "ECCENTRICITY": 0.0003615, "INCLINATION": 55.1046, "RA_OF_ASC_NODE": 156.0217, "ARG_OF_PERICENTER": 356.7859, "MEAN_ANOMALY": 180.9144, "EPHEMERIS_TYPE": 0, "CLASSIFICATION_TYPE": "U", "NORAD_CAT_ID": 55268, "ELEMENT_SET_NO": 999, "REV_AT_EPOCH": 2141, "BSTAR": 0, "MEAN_MOTION_DOT": 5.9e-07, "MEAN_MOTION_DDOT": 0}, "tle": {"line1": "1 55268U 23009A   25342.24475682  .00000059  00000+0  00000+0 0  9996", "line2": "2 55268  55.1046 156.0217 0003615 356.7859 180.9144  2.00555991 21410"}}, "geometry": {"type": "Point", "coordinates": [96.02157701274082, -51.115461180454936]}}, {"type": "Feature", "properties": {"norad_id": 56564, "name": "BEIDOU-3 G4 (C62)", "group": "gnss", "lat": -0.8223135235873306, "lon": -159.26056553066704, "alt_km": 35774.581729845726, "timestamp": "2025-12-08T21:31:04.911935+00:00", "meta": {"OBJECT_NAME": "BEIDOU-3 G4 (C62)", "OBJECT_ID": "2023-066A", "EPOCH": "2025-12-08T13:24:38.712960", "MEAN_MOTION": 1.00271138, "ECCENTRICITY": 0.00030479, "INCLINATION": 0.8241, "RA_OF_ASC_NODE": 301.7118, "ARG_OF_PERICENTER": 236.1797, "MEAN_ANOMALY": 260.9005, "EPHEMERIS_TYPE": 0, "CLASSIFICATION_TYPE": "U", "NORAD_CAT_ID": 56564, "ELEMENT_SET_NO": 999, "REV_AT_EPOCH": 948, "BSTAR": 0, "MEAN_MOTION_DOT": -1.09e-06, "MEAN_MOTION_DDOT": 0}, "tle": {"line1": "1 56564U 23066A   25342.55878140 -.00000109  00000+0  00000+0 0  9996", "line2": "2 56564   0.8241 301.7118 0003047 236.1797 260.9005  1.00271138  9489"}}, "geometry": {"type": "Point", "coordinates": [-159.26056553066704, -0.8223135235873306]}}, {"type": "Feature", "properties": {"norad_id": 56759, "name": "NVS-01 (IRNSS-1J)", "group": "gnss", "lat": -2.605792755448204, "lon": 170.01025252058778, "alt_km": 35788.323967264965, "timestamp": "2025-12-08T21:31:04.911964+00:00", "meta": {"OBJECT_NAME": "NVS-01 (IRNSS-1J)", "OBJECT_ID": "2023-076A", "EPOCH": "2025-12-08T12:30:28.542816", "MEAN_MOTION": 1.00265081, "ECCENTRICITY": 0.00086872, "INCLINATION": 2.6286, "RA_OF_ASC_NODE": 251.7551, "ARG_OF_PERICENTER": 8.2432, "MEAN_ANOMALY": 134.5997, "EPHEMERIS_TYPE": 0, "CLASSIFICATION_TYPE": "U", "NORAD_CAT_ID": 56759, "ELEMENT_SET_NO": 999, "REV_AT_EPOCH": 920, "BSTAR": 0, "MEAN_MOTION_DOT": -3.33e-06, "MEAN_MOTION_DDOT": 0}, "tle": {"line1": "1 56759U 23076A   25342.52116369 -.00000333  00000+0  00000+0 0  9997", "line2": "2 56759   2.6286 251.7551 0008687   8.2432 134.5997  1.00265081  9204"}}, "geometry": {"type": "Point", "coordinates": [170.01025252058778, -2.605792755448204]}}, {"type": "Feature", "properties": {"norad_id": 57517, "name": "COSMOS 2569 (703K)", "group": "gnss", "lat": 48.98825772637992, "lon": -133.02395721676717, "alt_km": 19149.42027408024, "timestamp": "2025-12-08T21:31:04.911977+00:00", "meta": {"OBJECT_NAME": "COSMOS 2569 (703K)", "OBJECT_ID": "2023-114A", "EPOCH": "2025-12-07T19:07:05.045952", "MEAN_MOTION": 2.13103857, "ECCENTRICITY": 0.00103488, "INCLINATION": 65.1916, "RA_OF_ASC_NODE": 79.0806, "ARG_OF_PERICENTER": 287.0317, "MEAN_ANOMALY": 72.8691, "EPHEMERIS_TYPE": 0, "CLASSIFICATION_TYPE": "U", "NORAD_CAT_ID": 57517, "ELEMENT_SET_NO": 999, "REV_AT_EPOCH": 1818, "BSTAR": 0, "MEAN_MOTION_DOT": -1.2e-07, "MEAN_MOTION_DDOT": 0}, "tle": {"line1": "1 57517U 23114A   25341.79658618 -.00000012  00000+0  00000+0 0  9993", "line2": "2 57517  65.1916  79.0806 0010348 287.0317  72.8691  2.13103857 18180"}}, "geometry": {"type": "Point", "coordinates": [-133.02395721676717, 48.98825772637992]}}, {"type": "Feature", "properties": {"norad_id": 58654, "name": "BEIDOU-3 M28 (C50)", "group": "gnss", "lat": 27.75197019976948, "lon": -132.37402622508105, "alt_km": 21528.059796357345, "timestamp": "2025-12-08T21:31:04.911989+00:00", "meta": {"OBJECT_NAME": "BEIDOU-3 M28 (C50)", "OBJECT_ID": "2023-207A", "EPOCH": "2025-12-06T12:45:22.310208", "MEAN_MOTION": 1.86229594, "ECCENTRICITY": 0.00021908, "INCLINATION": 55.5792, "RA_OF_ASC_NODE": 68.8117, "ARG_OF_PERICENTER": 267.5881, "MEAN_ANOMALY": 92.402, "EPHEMERIS_TYPE": 0, "CLASSIFICATION_TYPE": "U", "NORAD_CAT_ID": 58654, "ELEMENT_SET_NO": 999, "REV_AT_EPOCH": 1325, "BSTAR": 0, "MEAN_MOTION_DOT": -4.7e-07, "MEAN_MOTION_DDOT": 0}, "tle": {"line1": "1 58654U 23207A   25340.53150822 -.00000047  00000+0  00000+0 0  9992", "line2": "2 58654  55.5792  68.8117 0002190 267.5881  92.4020  1.86229594 13257"}}, "geometry": {"type": "Point", "coordinates": [-132.37402622508105, 27.75197019976948]}}, {"type": "Feature", "properties": {"norad_id": 58655, "name": "BEIDOU-3 M26 (C48)", "group": "gnss", "lat": -54.01509330354745, "lon": -1.8005897618589775, "alt_km": 21524.826823329677, "timestamp": "2025-12-08T21:31:04.912000+00:00", "meta": {"OBJECT_NAME": "BEIDOU-3 M26 (C48)", "OBJECT_ID": "2023-207B", "EPOCH": "2025-12-08T11:26:54.595392", "MEAN_MOTION": 1.8623113, "ECCENTRICITY": 0.00036549, "INCLINATION": 55.583, "RA_OF_ASC_NODE": 68.7321, "ARG_OF_PERICENTER": 253.8899, "MEAN_ANOMALY": 106.0912, "EPHEMERIS_TYPE": 0, "CLASSIFICATION_TYPE": "U", "NORAD_CAT_ID": 58655, "ELEMENT_SET_NO": 999, "REV_AT_EPOCH": 1327, "BSTAR": 0, "MEAN_MOTION_DOT": -4.7e-07, "MEAN_MOTION_DDOT": 0}, "tle": {"line1": "1 58655U 23207B   25342.47702078 -.00000047  00000+0  00000+0 0  9994", "line2": "2 58655  55.5830  68.7321 0003654 253.8899 106.0912  1.86231130 13273"}}, "geometry": {"type": "Point", "coordinates": [-1.8005897618589775, -54.01509330354745]}}, {"type": "Feature", "properties": {"norad_id": 59598, "name": "GSAT0225 (GALILEO 29)", "group": "gnss", "lat": 53.65688258807192, "lon": 178.4560354628274, "alt_km": 23216.285476082172, "timestamp": "2025-12-08T21:31:04.912012+00:00", "meta": {"OBJECT_NAME": "GSAT0225 (GALILEO 29)", "OBJECT_ID": "2024-079A", "EPOCH": "2025-12-07T07:17:21.433056", "MEAN_MOTION": 1.70474562, "ECCENTRICITY": 0.00020328, "INCLINATION": 54.9984, "RA_OF_ASC_NODE": 106.4468, "ARG_OF_PERICENTER": 173.4457, "MEAN_ANOMALY": 8.4253, "EPHEMERIS_TYPE": 0, "CLASSIFICATION_TYPE": "U", "NORAD_CAT_ID": 59598, "ELEMENT_SET_NO": 999, "REV_AT_EPOCH": 1004, "BSTAR": 0, "MEAN_MOTION_DOT": 7e-08, "MEAN_MOTION_DDOT": 0}, "tle": {"line1": "1 59598U 24079A   25341.30372029  .00000007  00000+0  00000+0 0  9994", "line2": "2 59598  54.9984 106.4468 0002032 173.4457   8.4253  1.70474562 10047"}}, "geometry": {"type": "Point", "coordinates": [178.4560354628274, 53.65688258807192]}}]}